TRANSPORTER-11 OBJECT A 
1 60468U 24149A   26068.74646182  .00010774  00000+0  36054-3 0  9993
2 60468  97.3780 149.0949 0003110 191.0010 169.1164 15.31141332 86830
STARLINK-32615          
1 62034U 24216C   26068.81617889  .00018324  00000+0  67424-3 0  9993
2 62034  43.0001 255.7206 0002946 281.4764  78.5756 15.27553790 72736
